*******************************************************************************
JPL/HORIZONS                107 Camilla (A868 WA)          2020-Jun-20 08:14:40
Rec #:     107 (+COV) Soln.date: 2020-May-20_00:58:46   # obs: 3413 (1868-2020)
 
IAU76/J2000 helio. ecliptic osc. elements (au, days, deg., period=Julian yrs):
 
  EPOCH=  2454881.5 ! 2009-Feb-19.00 (TDB)         Residual RMS= .27015
   EC= .0776887977185754   QR= 3.205380280461549   TP= 2454087.8828184693
   OM= 173.1253779267711   W=  309.7397760495001   IN= 10.04952517158218
   A= 3.47537823733761     MA= 120.7291156994498   ADIST= 3.74537619421367
   PER= 6.47905            N= .152125124           ANGMOM= .03197186
   DAN= 3.29095            DDN= 3.63494            L= 123.3012596
   B= -7.7113388           MOID= 2.23225999        TP= 2006-Dec-18.3828184693
 
Asteroid physical parameters (km, seconds, rotational period in hours):
   GM= .7475               RAD= 105.185            ROTPER= 4.844
   H= 7.1                  G= .080                 B-V= .705
                           ALBEDO= .059            STYP= X
 
ASTEROID comments: 
1: soln ref.= JPL#108, OCC=0
2: source=ORB
*******************************************************************************
 
 
*******************************************************************************
Ephemeris / WWW_USER Sat Jun 20 08:14:40 2020 Pasadena, USA      / Horizons
*******************************************************************************
Target body name: 107 Camilla (A868 WA)           {source: JPL#108}
Center body name: Solar System Barycenter (0)     {source: DE431}
Center-site name: BODY CENTER
*******************************************************************************
Start time      : A.D. 1969-Jun-28 00:00:00.0000 TDB
Stop  time      : A.D. 2071-May-04 00:00:00.0000 TDB
Step-size       : 7200 minutes
*******************************************************************************
Center geodetic : 0.00000000,0.00000000,0.0000000 {E-lon(deg),Lat(deg),Alt(km)}
Center cylindric: 0.00000000,0.00000000,0.0000000 {E-lon(deg),Dxy(km),Dz(km)}
Center radii    : (undefined)                                                  
Small perturbers: Yes                             {source: SB431-N16}
Output units    : AU-D
Output type     : GEOMETRIC cartesian states
Output format   : 2 (position and velocity)
Reference frame : Ecliptic of J2000.0
*******************************************************************************
Initial IAU76/J2000 heliocentric ecliptic osculating elements (au, days, deg.):
  EPOCH=  2454881.5 ! 2009-Feb-19.00 (TDB)         Residual RMS= .27015        
   EC= .0776887977185754   QR= 3.205380280461549   TP= 2454087.8828184693      
   OM= 173.1253779267711   W=  309.7397760495001   IN= 10.04952517158218       
  Equivalent ICRF heliocentric equatorial cartesian coordinates (au, au/d):
   X=-1.182709353102918E+00  Y=-3.341180559126261E+00  Z=-7.743077707230244E-01
  VX= 8.144516171122468E-03 VY=-3.275972304434156E-03 VZ=-9.590649723476972E-04
Asteroid physical parameters (km, seconds, rotational period in hours):        
   GM= .7475               RAD= 105.185            ROTPER= 4.844               
   H= 7.1                  G= .080                 B-V= .705                   
                           ALBEDO= .059            STYP= X                     
*******************************************************************************
            JDTDB,            Calendar Date (TDB),        delta-T,                      X,                      Y,                      Z,                     VX,                     VY,                     VZ,
******************************************************************************************************************************************************************************************************************
$$SOE
2476940.500000000, A.D. 2069-Jul-13 00:00:00.0000,      69.183801,  3.404343693380806E+00, -1.450433865284051E+00,  1.580315489052031E-01,  3.019217174698361E-03,  7.986294273527405E-03, -1.491272829170554E-03,
2476945.500000000, A.D. 2069-Jul-18 00:00:00.0000,      69.183664,  3.419193573500739E+00, -1.410397983237253E+00,  1.505635055057532E-01,  2.920635543947991E-03,  8.027875651991806E-03, -1.495909138685712E-03,
2476950.500000000, A.D. 2069-Jul-23 00:00:00.0000,      69.183529,  3.433549063833172E+00, -1.370156945137973E+00,  1.430728126427844E-01,  2.821462924947191E-03,  8.068355207309750E-03, -1.500332373900767E-03,
2476955.500000000, A.D. 2069-Jul-28 00:00:00.0000,      69.183396,  3.447407234516523E+00, -1.329716282380592E+00,  1.355605392886405E-01,  2.721709369816348E-03,  8.107724033999045E-03, -1.504541096374294E-03,
2476960.500000000, A.D. 2069-Aug-02 00:00:00.0000,      69.183266,  3.460765206255228E+00, -1.289081570795349E+00,  1.280277615786186E-01,  2.621385053170827E-03,  8.145973263578099E-03, -1.508533879530107E-03,
2476965.500000000, A.D. 2069-Aug-07 00:00:00.0000,      69.183141,  3.473620150937193E+00, -1.248258430457616E+00,  1.204755627491671E-01,  2.520500274121452E-03,  8.183094066861686E-03, -1.512309309651784E-03,
2476970.500000000, A.D. 2069-Aug-12 00:00:00.0000,      69.183024,  3.485969292261384E+00, -1.207252525485602E+00,  1.129050330710555E-01,  2.419065458324986E-03,  8.219077656289941E-03, -1.515865986897519E-03,
2476975.500000000, A.D. 2069-Aug-17 00:00:00.0000,      69.182915,  3.497809906375762E+00, -1.166069563826338E+00,  1.053172697774310E-01,  2.317091160078776E-03,  8.253915288291494E-03, -1.519202526331480E-03,
2476980.500000000, A.D. 2069-Aug-22 00:00:00.0000,      69.182813,  3.509139322525828E+00, -1.124715297029755E+00,  9.771337698668345E-02,  2.214588064457866E-03,  8.287598265679767E-03, -1.522317558966538E-03,
2476985.500000000, A.D. 2069-Aug-27 00:00:00.0000,      69.182720,  3.519954923713921E+00, -1.083195520010705E+00,  9.009446562008122E-02,  2.111566989491152E-03,  8.320117940078585E-03, -1.525209732813716E-03,
2476990.500000000, A.D. 2069-Sep-01 00:00:00.0000,      69.182633,  3.530254147369513E+00, -1.041516070798797E+00,  8.246165331415226E-02,  2.008038888369377E-03,  8.351465714371779E-03, -1.527877713933843E-03,
2476995.500000000, A.D. 2069-Sep-06 00:00:00.0000,      69.182557,  3.540034486030562E+00, -9.996828302759316E-01,  7.481606432780524E-02,  1.904014851670083E-03,  8.381633045172327E-03, -1.530320187488293E-03,
2477000.500000000, A.D. 2069-Sep-11 00:00:00.0000,      69.182492,  3.549293488035956E+00, -9.577017219014198E-01,  6.715882944420204E-02,  1.799506109544390E-03,  8.410611445325429E-03, -1.532535858789650E-03,
2477005.500000000, A.D. 2069-Sep-16 00:00:00.0000,      69.182440,  3.558028758228774E+00, -9.155787114243968E-01,  5.949108586738721E-02,  1.694524033875533E-03,  8.438392486497521E-03, -1.534523454344632E-03,
2477010.500000000, A.D. 2069-Sep-21 00:00:00.0000,      69.182399,  3.566237958670314E+00, -8.733198065829600E-01,  5.181397711375799E-02,  1.589080140442695E-03,  8.464967801905440E-03, -1.536281722871008E-03,
2477015.500000000, A.D. 2069-Sep-26 00:00:00.0000,      69.182368,  3.573918809365410E+00, -8.309310567893826E-01,  4.412865289857409E-02,  1.483186091298346E-03,  8.490329089125635E-03, -1.537809436262184E-03,
2477020.500000000, A.D. 2069-Oct-01 00:00:00.0000,      69.182348,  3.581069089000267E+00, -7.884185528014831E-01,  3.643626901777906E-02,  1.376853697388201E-03,  8.514468112797895E-03, -1.539105390500216E-03,
2477025.500000000, A.D. 2069-Oct-06 00:00:00.0000,      69.182340,  3.587686635693608E+00, -7.457884263809464E-01,  2.873798722533091E-02,  1.270094921201995E-03,  8.537376707145841E-03, -1.540168406544985E-03,
2477030.500000000, A.D. 2069-Oct-11 00:00:00.0000,      69.182346,  3.593769347760609E+00, -7.030468499392531E-01,  2.103497510610655E-02,  1.162921879218367E-03,  8.559046778442336E-03, -1.540997331213930E-03,
2477035.500000000, A.D. 2069-Oct-16 00:00:00.0000,      69.182365,  3.599315184488558E+00, -6.602000361711466E-01,  1.332840594446949E-02,  1.055346844174699E-03,  8.579470307536618E-03, -1.541591038033613E-03,
2477040.500000000, A.D. 2069-Oct-21 00:00:00.0000,      69.182397,  3.604322166923644E+00, -6.172542376753067E-01,  5.619458588685882E-03,  9.473822472552429E-04,  8.598639352438675E-03, -1.541948428046651E-03,
2477045.500000000, A.D. 2069-Oct-26 00:00:00.0000,      69.182438,  3.608788378668545E+00, -5.742157465619946E-01, -2.090682688568885E-03,  8.390406802180333E-04,  8.616546050949142E-03, -1.542068430568906E-03,
2477050.500000000, A.D. 2069-Oct-31 00:00:00.0000,      69.182490,  3.612711966690479E+00, -5.310908940473984E-01, -9.800828333361279E-03,  7.303348974620225E-04,  8.633182623351358E-03, -1.541950003893839E-03,
2477055.500000000, A.D. 2069-Nov-05 00:00:00.0000,      69.182554,  3.616091142139500E+00, -4.878860500343298E-01, -1.750978365702898E-02,  6.212778180628256E-04,  8.648541375180660E-03, -1.541592135939140E-03,
2477060.500000000, A.D. 2069-Nov-10 00:00:00.0000,      69.182630,  3.618924181176975E+00, -4.446076226788868E-01, -2.521634898579132E-02,  5.118825278113389E-04,  8.662614700065841E-03, -1.540993844832183E-03,
2477065.500000000, A.D. 2069-Nov-15 00:00:00.0000,      69.182718,  3.621209425814346E+00, -4.012620579427842E-01, -3.291931981312883E-02,  4.021622812964748E-04,  8.675395082613195E-03, -1.540154179431998E-03,
2477070.500000000, A.D. 2069-Nov-20 00:00:00.0000,      69.182815,  3.622945284762404E+00, -3.578558391312293E-01, -4.061748695462011E-02,  2.921305040297668E-04,  8.686875101300779E-03, -1.539072219790579E-03,
2477075.500000000, A.D. 2069-Nov-25 00:00:00.0000,      69.182919,  3.624130234291304E+00, -3.143954864163837E-01, -4.830963670494089E-02,  1.818007946011753E-04,  8.697047431342871E-03, -1.537747077558210E-03,
